start=new Date('2023-06-20T00:00:00.000Z').valueOf();
sats=[{"TLE_LINE2":"2 53546  53.2148 195.5238 0000925  90.6733 269.4365 15.08835577 46403","APOAPSIS":"540.399","SITE":"AFETR","LAUNCH_DATE":"2022-08-19","TLE_LINE1":"1 53546U 22101V   23170.77177522  .00001142  00000-0  89800-4 0  9997","CENTER_NAME":"EARTH","ECCENTRICITY":"0.00009250","REF_FRAME":"TEME","SEMIMAJOR_AXIS":"6917.894","MEAN_MOTION":"15.08835577","OBJECT_TYPE":"PAYLOAD","MEAN_ANOMALY":"269.4365","RCS_SIZE":"LARGE","NORAD_CAT_ID":"53546","MEAN_ELEMENT_THEORY":"SGP4","COUNTRY_CODE":"US","PERIOD":"95.438","CLASSIFICATION_TYPE":"U","RA_OF_ASC_NODE":"195.5238","ARG_OF_PERICENTER":"90.6733","DECAY_DATE":null,"MEAN_MOTION_DDOT":"0.0000000000000","PERIAPSIS":"539.119","REV_AT_EPOCH":"4640","ELEMENT_SET_NO":"999","INCLINATION":"53.2148","FILE":"3937509","EPOCH":"2023-06-19T18:31:21.379008","MEAN_MOTION_DOT":"0.00001142","OBJECT_ID":"2022-101V","BSTAR":"0.00008980000000","EPHEMERIS_TYPE":"0","GP_ID":"234318816","TIME_SYSTEM":"UTC","OBJECT_NAME":"STARLINK-4477"},{"MEAN_MOTION_DOT":"0.00000821","OBJECT_ID":"2022-101W","ELEMENT_SET_NO":"999","REV_AT_EPOCH":"4693","INCLINATION":"53.2155","EPOCH":"2023-06-19T19:49:36.106176","FILE":"3937509","EPHEMERIS_TYPE":"0","GP_ID":"234318564","OBJECT_NAME":"STARLINK-4474","TIME_SYSTEM":"UTC","BSTAR":"0.00006966000000","PERIOD":"95.438","RA_OF_ASC_NODE":"205.7478","CLASSIFICATION_TYPE":"U","MEAN_ELEMENT_THEORY":"SGP4","COUNTRY_CODE":"US","ARG_OF_PERICENTER":"90.9720","DECAY_DATE":null,"MEAN_MOTION_DDOT":"0.0000000000000","PERIAPSIS":"539.042","MEAN_MOTION":"15.08837380","SEMIMAJOR_AXIS":"6917.888","REF_FRAME":"TEME","NORAD_CAT_ID":"53547","RCS_SIZE":"LARGE","OBJECT_TYPE":"PAYLOAD","MEAN_ANOMALY":"269.1390","TLE_LINE2":"2 53547  53.2155 205.7478 0001029  90.9720 269.1390 15.08837380 46934","APOAPSIS":"540.465","TLE_LINE1":"1 53547U 22101W   23170.82611234  .00000821  00000-0  69660-4 0  9992","LAUNCH_DATE":"2022-08-19","CENTER_NAME":"EARTH","ECCENTRICITY":"0.00010290","SITE":"AFETR"},{"GP_ID":"234260890","TIME_SYSTEM":"UTC","OBJECT_NAME":"STARLINK-4513","EPHEMERIS_TYPE":"0","BSTAR":"0.00011488000000","OBJECT_ID":"2022-101X","MEAN_MOTION_DOT":"0.00001541","EPOCH":"2023-06-19T11:31:28.161984","FILE":"3937174","ELEMENT_SET_NO":"999","REV_AT_EPOCH":"4621","INCLINATION":"53.2164","MEAN_MOTION_DDOT":"0.0000000000000","PERIAPSIS":"539.185","ARG_OF_PERICENTER":"75.3063","DECAY_DATE":null,"PERIOD":"95.437","RA_OF_ASC_NODE":"207.3014","CLASSIFICATION_TYPE":"U","COUNTRY_CODE":"US","MEAN_ELEMENT_THEORY":"SGP4","NORAD_CAT_ID":"53548","RCS_SIZE":"LARGE","MEAN_ANOMALY":"284.8018","OBJECT_TYPE":"PAYLOAD","MEAN_MOTION":"15.08842327","SEMIMAJOR_AXIS":"6917.873","REF_FRAME":"TEME","ECCENTRICITY":"0.00008000","CENTER_NAME":"EARTH","LAUNCH_DATE":"2022-08-19","TLE_LINE1":"1 53548U 22101X   23170.48018706  .00001541  00000-0  11488-3 0  9994","SITE":"AFETR","APOAPSIS":"540.292","TLE_LINE2":"2 53548  53.2164 207.3014 0000800  75.3063 284.8018 15.08842327 46211"},{"TLE_LINE2":"2 53549  53.2153 205.7815 0000967  87.9680 272.1422 15.08838100 46920","APOAPSIS":"540.420","SITE":"AFETR","LAUNCH_DATE":"2022-08-19","TLE_LINE1":"1 53549U 22101Y   23170.81875392  .00001426  00000-0  10763-3 0  9991","ECCENTRICITY":"0.00009670","CENTER_NAME":"EARTH","REF_FRAME":"TEME","SEMIMAJOR_AXIS":"6917.886","MEAN_MOTION":"15.08838100","OBJECT_TYPE":"PAYLOAD","MEAN_ANOMALY":"272.1422","NORAD_CAT_ID":"53549","RCS_SIZE":"LARGE","COUNTRY_CODE":"US","MEAN_ELEMENT_THEORY":"SGP4","PERIOD":"95.438","RA_OF_ASC_NODE":"205.7815","CLASSIFICATION_TYPE":"U","ARG_OF_PERICENTER":"87.9680","DECAY_DATE":null,"MEAN_MOTION_DDOT":"0.0000000000000","PERIAPSIS":"539.082","REV_AT_EPOCH":"4692","ELEMENT_SET_NO":"999","INCLINATION":"53.2153","FILE":"3937509","EPOCH":"2023-06-19T19:39:00.338688","MEAN_MOTION_DOT":"0.00001426","OBJECT_ID":"2022-101Y","BSTAR":"0.00010763000000","EPHEMERIS_TYPE":"0","GP_ID":"234319567","OBJECT_NAME":"STARLINK-4516","TIME_SYSTEM":"UTC"},{"NORAD_CAT_ID":"53550","RCS_SIZE":"LARGE","MEAN_ANOMALY":"284.5816","OBJECT_TYPE":"PAYLOAD","MEAN_MOTION":"15.08838646","SEMIMAJOR_AXIS":"6917.885","REF_FRAME":"TEME","TLE_LINE1":"1 53550U 22101Z   23170.41026807  .00001911  00000-0  13812-3 0  9995","LAUNCH_DATE":"2022-08-19","CENTER_NAME":"EARTH","ECCENTRICITY":"0.00011120","SITE":"AFETR","TLE_LINE2":"2 53550  53.2162 207.6154 0001112  75.5300 284.5816 15.08838646 46866","APOAPSIS":"540.519","EPHEMERIS_TYPE":"0","GP_ID":"234288390","OBJECT_NAME":"STARLINK-4518","TIME_SYSTEM":"UTC","BSTAR":"0.00013812000000","MEAN_MOTION_DOT":"0.00001911","OBJECT_ID":"2022-101Z","REV_AT_EPOCH":"4686","ELEMENT_SET_NO":"999","INCLINATION":"53.2162","EPOCH":"2023-06-19T09:50:47.161248","FILE":"3937338","ARG_OF_PERICENTER":"75.5300","DECAY_DATE":null,"MEAN_MOTION_DDOT":"0.0000000000000","PERIAPSIS":"538.980","PERIOD":"95.438","RA_OF_ASC_NODE":"207.6154","CLASSIFICATION_TYPE":"U","MEAN_ELEMENT_THEORY":"SGP4","COUNTRY_CODE":"US"},{"ARG_OF_PERICENTER":"85.7884","DECAY_DATE":null,"MEAN_MOTION_DDOT":"0.0000000000000","PERIAPSIS":"539.145","PERIOD":"95.438","CLASSIFICATION_TYPE":"U","RA_OF_ASC_NODE":"205.7993","MEAN_ELEMENT_THEORY":"SGP4","COUNTRY_CODE":"US","EPHEMERIS_TYPE":"0","GP_ID":"234319065","OBJECT_NAME":"STARLINK-4514","TIME_SYSTEM":"UTC","BSTAR":"0.00003228200000","MEAN_MOTION_DOT":"0.00000226","OBJECT_ID":"2022-101AA","REV_AT_EPOCH":"4692","ELEMENT_SET_NO":"999","INCLINATION":"53.2156","EPOCH":"2023-06-19T19:33:42.180192","FILE":"3937509","LAUNCH_DATE":"2022-08-19","TLE_LINE1":"1 53551U 22101AA  23170.81507153  .00000226  00000-0  32282-4 0  9999","ECCENTRICITY":"0.00008890","CENTER_NAME":"EARTH","SITE":"AFETR","TLE_LINE2":"2 53551  53.2156 205.7993 0000889  85.7884 274.3210 15.08835220 46927","APOAPSIS":"540.375","RCS_SIZE":"LARGE","NORAD_CAT_ID":"53551","MEAN_ANOMALY":"274.3210","OBJECT_TYPE":"PAYLOAD","MEAN_MOTION":"15.08835220","SEMIMAJOR_AXIS":"6917.895","REF_FRAME":"TEME"},{"CLASSIFICATION_TYPE":"U","RA_OF_ASC_NODE":"207.6477","PERIOD":"95.438","MEAN_ELEMENT_THEORY":"SGP4","COUNTRY_CODE":"US","DECAY_DATE":null,"ARG_OF_PERICENTER":"96.2282","PERIAPSIS":"539.068","MEAN_MOTION_DDOT":"0.0000000000000","MEAN_MOTION_DOT":"0.00001379","OBJECT_ID":"2022-101AB","INCLINATION":"53.2163","REV_AT_EPOCH":"4685","ELEMENT_SET_NO":"999","EPOCH":"2023-06-19T09:40:11.251200","FILE":"3937338","EPHEMERIS_TYPE":"0","OBJECT_NAME":"STARLINK-4495","TIME_SYSTEM":"UTC","GP_ID":"234287389","BSTAR":"0.00010469000000","TLE_LINE2":"2 53552  53.2163 207.6477 0000990  96.2282 263.8823 15.08837662 46853","APOAPSIS":"540.437","LAUNCH_DATE":"2022-08-19","TLE_LINE1":"1 53552U 22101AB  23170.40290800  .00001379  00000-0  10469-3 0  9995","CENTER_NAME":"EARTH","ECCENTRICITY":"0.00009900","SITE":"AFETR","MEAN_MOTION":"15.08837662","REF_FRAME":"TEME","SEMIMAJOR_AXIS":"6917.888","RCS_SIZE":"LARGE","NORAD_CAT_ID":"53552","MEAN_ANOMALY":"263.8823","OBJECT_TYPE":"PAYLOAD"},{"MEAN_MOTION":"15.08835862","SEMIMAJOR_AXIS":"6917.893","REF_FRAME":"TEME","RCS_SIZE":"LARGE","NORAD_CAT_ID":"53553","MEAN_ANOMALY":"271.5477","OBJECT_TYPE":"PAYLOAD","APOAPSIS":"540.350","TLE_LINE2":"2 53553  53.2157 205.7728 0000855  88.5613 271.5477 15.08835862 46926","CENTER_NAME":"EARTH","ECCENTRICITY":"0.00008550","TLE_LINE1":"1 53553U 22101AC  23170.79297597  .00001000  00000-0  80877-4 0  9990","LAUNCH_DATE":"2022-08-19","SITE":"AFETR","OBJECT_ID":"2022-101AC","MEAN_MOTION_DOT":"0.00001000","FILE":"3937509","EPOCH":"2023-06-19T19:01:53.123808","INCLINATION":"53.2157","ELEMENT_SET_NO":"999","REV_AT_EPOCH":"4692","TIME_SYSTEM":"UTC","OBJECT_NAME":"STARLINK-4501","GP_ID":"234320068","EPHEMERIS_TYPE":"0","BSTAR":"0.00008087700000","RA_OF_ASC_NODE":"205.7728","CLASSIFICATION_TYPE":"U","PERIOD":"95.438","COUNTRY_CODE":"US","MEAN_ELEMENT_THEORY":"SGP4","PERIAPSIS":"539.167","MEAN_MOTION_DDOT":"0.0000000000000","DECAY_DATE":null,"ARG_OF_PERICENTER":"88.5613"},{"CENTER_NAME":"EARTH","ECCENTRICITY":"0.00009420","TLE_LINE1":"1 53554U 22101AD  23170.39650526  .00001167  00000-0  91419-4 0  9990","LAUNCH_DATE":"2022-08-19","SITE":"AFETR","APOAPSIS":"540.407","TLE_LINE2":"2 53554  53.2156 207.6836 0000942  91.5983 268.5117 15.08836627 46206","RCS_SIZE":"LARGE","NORAD_CAT_ID":"53554","MEAN_ANOMALY":"268.5117","OBJECT_TYPE":"PAYLOAD","MEAN_MOTION":"15.08836627","SEMIMAJOR_AXIS":"6917.891","REF_FRAME":"TEME","PERIAPSIS":"539.104","MEAN_MOTION_DDOT":"0.0000000000000","DECAY_DATE":null,"ARG_OF_PERICENTER":"91.5983","RA_OF_ASC_NODE":"207.6836","CLASSIFICATION_TYPE":"U","PERIOD":"95.438","MEAN_ELEMENT_THEORY":"SGP4","COUNTRY_CODE":"US","OBJECT_NAME":"STARLINK-4506","TIME_SYSTEM":"UTC","GP_ID":"234288890","EPHEMERIS_TYPE":"0","BSTAR":"0.00009141900000","OBJECT_ID":"2022-101AD","MEAN_MOTION_DOT":"0.00001167","EPOCH":"2023-06-19T09:30:58.054464","FILE":"3937338","INCLINATION":"53.2156","REV_AT_EPOCH":"4620","ELEMENT_SET_NO":"999"},{"MEAN_MOTION":"15.08839230","REF_FRAME":"TEME","SEMIMAJOR_AXIS":"6917.883","NORAD_CAT_ID":"53555","RCS_SIZE":"LARGE","MEAN_ANOMALY":"266.7786","OBJECT_TYPE":"PAYLOAD","TLE_LINE2":"2 53555  53.2158 208.2256 0000867  93.3305 266.7786 15.08839230 46841","APOAPSIS":"540.348","TLE_LINE1":"1 53555U 22101AE  23170.27411268  .00004096  00000-0  27530-3 0  9992","LAUNCH_DATE":"2022-08-19","CENTER_NAME":"EARTH","ECCENTRICITY":"0.00008670","SITE":"AFETR","MEAN_MOTION_DOT":"0.00004096","OBJECT_ID":"2022-101AE","INCLINATION":"53.2158","REV_AT_EPOCH":"4684","ELEMENT_SET_NO":"999","EPOCH":"2023-06-19T06:34:43.335552","FILE":"3937509","EPHEMERIS_TYPE":"0","OBJECT_NAME":"STARLINK-4504","TIME_SYSTEM":"UTC","GP_ID":"234318565","BSTAR":"0.00027530000000","RA_OF_ASC_NODE":"208.2256","CLASSIFICATION_TYPE":"U","PERIOD":"95.438","MEAN_ELEMENT_THEORY":"SGP4","COUNTRY_CODE":"US","DECAY_DATE":null,"ARG_OF_PERICENTER":"93.3305","PERIAPSIS":"539.148","MEAN_MOTION_DDOT":"0.0000000000000"}];
